NORAD_CAT_ID,OBJECT_NAME,OBJECT_TYPE,EPOCH,MEAN_MOTION,ECCENTRICITY,INCLINATION,RA_OF_ASC_NODE,ARG_OF_PERICENTER,MEAN_ANOMALY,BSTAR,MEAN_MOTION_DOT,MEAN_MOTION_DDOT,TLE_LINE0,TLE_LINE1,TLE_LINE2,SEMIMAJOR_AXIS,PERIOD,APOGEE,PERIGEE,DECAYED
51462.0,STARLINK-3166,PAYLOAD,2023-09-02 06:55:46,15.08842027,0.0001052,53.2188,86.4825,94.7964,265.3149,5.929e-05,6.56e-06,0.0,0 STARLINK-3166,1 51462U 22010G   23245.28872831  .00000656  00000-0  59290-4 0  9994,2 51462  53.2188  86.4825 0001052  94.7964 265.3149 15.08842027 88022,6917.874,95.437,540.467,539.011,0.0
51462.0,STARLINK-3166,PAYLOAD,2023-09-02 19:38:51,15.08840906,0.0001181,53.2163,84.1033,99.1778,260.9348,3.9329e-05,3.38e-06,0.0,0 STARLINK-3166,1 51462U 22010G   23245.81864995  .00000338  00000-0  39329-4 0  9993,2 51462  53.2163  84.1033 0001181  99.1778 260.9348 15.08840906 88101,6917.878,95.437,540.56,538.926,0.0
51462.0,STARLINK-3166,PAYLOAD,2023-09-03 00:25:00,15.08846017,0.0001225,53.2185,83.2106,101.5114,258.6016,7.6629e-05,9.32e-06,0.0,0 STARLINK-3166,1 51462U 22010G   23246.01736496  .00000932  00000-0  76629-4 0  9994,2 51462  53.2185  83.2106 0001225 101.5114 258.6016 15.08846017 88607,6917.862,95.437,540.574,538.88,0.0
51462.0,STARLINK-3166,PAYLOAD,2023-09-03 06:46:33,15.08837696,0.0001192,53.2174,82.0221,101.3179,258.7948,1.0752e-05,-1.17e-06,0.0,0 STARLINK-3166,1 51462U 22010G   23246.28233239 -.00000117  00000-0  10752-4 0  9991,2 51462  53.2174  82.0221 0001192 101.3179 258.7948 15.08837696 88644,6917.887,95.438,540.577,538.928,0.0
51462.0,STARLINK-3166,PAYLOAD,2023-09-03 22:40:24,15.08842708,0.0001228,53.2178,79.0483,98.2249,261.8882,5.2538e-05,5.48e-06,0.0,0 STARLINK-3166,1 51462U 22010G   23246.94472770  .00000548  00000-0  52538-4 0  9994,2 51462  53.2178  79.0483 0001228  98.2249 261.8882 15.08842708 88749,6917.872,95.437,540.587,538.888,0.0
51462.0,STARLINK-3166,PAYLOAD,2023-09-04 12:58:53,15.0883326,0.0001174,53.2175,76.3722,96.551,263.5616,1.4638e-05,-5.5e-07,0.0,0 STARLINK-3166,1 51462U 22010G   23247.54089530 -.00000055  00000-0  14638-4 0  9992,2 51462  53.2175  76.3722 0001174  96.5510 263.5616 15.08833260 88369,6917.901,95.438,540.578,538.954,0.0
51462.0,STARLINK-3166,PAYLOAD,2023-09-05 12:49:40,15.08831101,0.0001186,53.2182,71.9128,101.8117,258.3009,1.7864e-05,-4e-08,0.0,0 STARLINK-3166,1 51462U 22010G   23248.53449976 -.00000004  00000-0  17864-4 0  9994,2 51462  53.2182  71.9128 0001186 101.8117 258.3009 15.08831101 88511,6917.908,95.438,540.593,538.952,0.0
51462.0,STARLINK-3166,PAYLOAD,2023-09-05 19:11:13,15.08831768,0.000125,53.2179,70.7243,94.436,265.6775,-1.2235e-05,-4.83e-06,0.0,0 STARLINK-3166,1 51462U 22010G   23248.79946217 -.00000483  00000-0 -12235-4 0  9991,2 51462  53.2179  70.7243 0001250  94.4360 265.6775 15.08831768 89028,6917.906,95.438,540.635,538.906,0.0
51462.0,STARLINK-3166,PAYLOAD,2023-09-06 04:43:31,15.0884954,0.0001177,53.2184,68.9408,98.4277,261.6849,-0.0001788,-3.133e-05,0.0,0 STARLINK-3166,1 51462U 22010G   23249.19689657 -.00003133  00000-0 -17880-3 0  9993,2 51462  53.2184  68.9408 0001177  98.4277 261.6849 15.08849540 89086,6917.851,95.437,540.53,538.902,0.0
51462.0,STARLINK-3166,PAYLOAD,2023-09-06 12:40:27,15.08840193,0.0001059,53.2174,67.4523,92.1012,268.0102,9.036e-05,1.151e-05,0.0,0 STARLINK-3166,1 51462U 22010G   23249.52809624  .00001151  00000-0  90360-4 0  9999,2 51462  53.2174  67.4523 0001059  92.1012 268.0102 15.08840193 88665,6917.88,95.438,540.477,539.012,0.0
51462.0,STARLINK-3166,PAYLOAD,2023-09-06 19:01:59,15.0884595,0.000112,53.2176,66.2635,94.0734,266.0386,0.00013979,1.938e-05,0.0,0 STARLINK-3166,1 51462U 22010G   23249.79305121  .00001938  00000-0  13979-3 0  9994,2 51462  53.2176  66.2635 0001120  94.0734 266.0386 15.08845950 88702,6917.862,95.437,540.502,538.952,0.0
51462.0,STARLINK-3166,PAYLOAD,2023-09-07 10:55:51,15.08835876,0.0001253,53.2193,63.2903,87.7814,272.3321,0.00010661,1.409e-05,0.0,0 STARLINK-3166,1 51462U 22010G   23250.45545902  .00001409  00000-0  10661-3 0  9990,2 51462  53.2193  63.2903 0001253  87.7814 272.3321 15.08835876 89279,6917.893,95.438,540.625,538.891,0.0
51462.0,STARLINK-3166,PAYLOAD,2023-09-07 12:31:15,15.08819061,0.0001153,53.2196,62.992,90.5398,269.5727,0.00024828,3.664e-05,0.0,0 STARLINK-3166,1 51462U 22010G   23250.52170357  .00003664  00000-0  24828-3 0  9991,2 51462  53.2196  62.9920 0001153  90.5398 269.5727 15.08819061 88810,6917.944,95.439,540.607,539.012,0.0
51462.0,STARLINK-3166,PAYLOAD,2023-09-07 22:03:33,15.08837047,0.0001259,53.2187,61.2078,86.6074,273.5062,9.8438e-05,1.279e-05,0.0,0 STARLINK-3166,1 51462U 22010G   23250.91913993  .00001279  00000-0  98438-4 0  9994,2 51462  53.2187  61.2078 0001259  86.6074 273.5062 15.08837047 89340,6917.889,95.438,540.625,538.883,0.0
51462.0,STARLINK-3166,PAYLOAD,2023-09-08 04:25:06,15.08836248,0.000133,53.219,60.0168,79.3298,280.7844,4.9789e-05,5.05e-06,0.0,0 STARLINK-3166,1 51462U 22010G   23251.18410238  .00000505  00000-0  49789-4 0  9994,2 51462  53.2190  60.0168 0001330  79.3298 280.7844 15.08836248 88910,6917.892,95.438,540.677,538.837,0.0
51462.0,STARLINK-3166,PAYLOAD,2023-09-08 20:18:57,15.08846247,9.11e-05,53.2186,57.0433,69.2784,290.8305,-7.3411e-06,-4.05e-06,0.0,0 STARLINK-3166,1 51462U 22010G   23251.84649669 -.00000405  00000-0 -73411-5 0  9990,2 51462  53.2186  57.0433 0000911  69.2784 290.8305 15.08846247 89014,6917.861,95.437,540.357,539.096,0.0
51462.0,STARLINK-3166,PAYLOAD,2023-09-08 21:54:20,15.08851169,0.000115,53.2191,56.7463,79.8217,280.2905,3.2257e-05,2.26e-06,0.0,0 STARLINK-3166,1 51462U 22010G   23251.91273214  .00000226  00000-0  32257-4 0  9998,2 51462  53.2191  56.7463 0001150  79.8217 280.2905 15.08851169 89493,6917.846,95.437,540.507,538.916,0.0
51462.0,STARLINK-3166,PAYLOAD,2023-09-09 10:37:26,15.08832242,0.0001181,53.2183,54.3674,85.4224,274.6903,-3.4121e-06,-3.42e-06,0.0,0 STARLINK-3166,1 51462U 22010G   23252.44266561 -.00000342  00000-0 -34121-5 0  9998,2 51462  53.2183  54.3674 0001181  85.4224 274.6903 15.08832242 89572,6917.904,95.438,540.586,538.952,0.0
51462.0,STARLINK-3166,PAYLOAD,2023-09-10 04:06:40,15.08840337,9.72e-05,53.2187,51.0979,84.9877,275.1226,0.00010011,1.306e-05,0.0,0 STARLINK-3166,1 51462U 22010G   23253.17129795  .00001306  00000-0  10011-3 0  9995,2 51462  53.2187  51.0979 0000972  84.9877 275.1226 15.08840337 89683,6917.879,95.438,540.417,539.072,0.0
51462.0,STARLINK-3166,PAYLOAD,2023-09-11 13:29:46,15.08838645,0.0001078,53.2192,44.8525,97.1285,262.9829,4.0694e-05,3.6e-06,0.0,0 STARLINK-3166,1 51462U 22010G   23254.56234115  .00000360  00000-0  40694-4 0  9992,2 51462  53.2192  44.8525 0001078  97.1285 262.9829 15.08838645 89427,6917.885,95.438,540.495,539.004,0.0
51462.0,STARLINK-3166,PAYLOAD,2023-09-11 16:40:32,15.08842649,0.0001153,53.2194,44.2576,96.4026,263.7097,7.4859e-05,9.04e-06,0.0,0 STARLINK-3166,1 51462U 22010G   23254.69481825  .00000904  00000-0  74859-4 0  9992,2 51462  53.2194  44.2576 0001153  96.4026 263.7097 15.08842649 89917,6917.872,95.437,540.535,538.94,0.0
51462.0,STARLINK-3166,PAYLOAD,2023-09-11 21:26:41,15.08849029,0.0001144,53.2197,43.3657,93.3672,266.7451,0.00011516,1.546e-05,0.0,0 STARLINK-3166,1 51462U 22010G   23254.89353303  .00001546  00000-0  11516-3 0  9996,2 51462  53.2197  43.3657 0001144  93.3672 266.7451 15.08849029 89942,6917.853,95.437,540.509,538.926,0.0
51462.0,STARLINK-3166,PAYLOAD,2023-09-12 13:20:33,15.08839035,0.0001058,53.2196,40.3934,92.4754,267.636,1.3247e-05,-7.7e-07,0.0,0 STARLINK-3166,1 51462U 22010G   23255.55594129 -.00000077  00000-0  13247-4 0  9996,2 51462  53.2196  40.3934 0001058  92.4754 267.6360 15.08839035 89575,6917.883,95.438,540.48,539.016,0.0
51462.0,STARLINK-3166,PAYLOAD,2023-09-12 16:31:19,15.08848458,0.0001222,53.2189,39.7993,78.7501,281.3628,-7.6594e-06,-4.1e-06,0.0,0 STARLINK-3166,1 51462U 22010G   23255.68841653 -.00000410  00000-0 -76594-5 0  9994,2 51462  53.2189  39.7993 0001222  78.7501 281.3628 15.08848458 90069,6917.855,95.437,540.565,538.874,0.0
51462.0,STARLINK-3166,PAYLOAD,2023-09-12 19:42:04,15.08857306,0.0001138,53.2195,39.2042,80.1653,279.9467,7.515e-05,9.09e-06,0.0,0 STARLINK-3166,1 51462U 22010G   23255.82088711  .00000909  00000-0  75150-4 0  9995,2 51462  53.2195  39.2042 0001138  80.1653 279.9467 15.08857306 89612,6917.827,95.436,540.48,538.905,0.0
51462.0,STARLINK-3166,PAYLOAD,2023-09-13 13:11:19,15.08845226,0.0001205,53.22,35.9295,93.1559,266.9571,0.00014353,1.997e-05,0.0,0 STARLINK-3166,1 51462U 22010G   23256.54953346  .00001997  00000-0  14353-3 0  9995,2 51462  53.2200  35.9295 0001205  93.1559 266.9571 15.08845226 89728,6917.864,95.437,540.563,538.896,0.0
51462.0,STARLINK-3166,PAYLOAD,2023-09-13 16:22:05,15.08857474,0.0001136,53.2184,35.3382,89.7397,270.3726,0.00022591,3.311e-05,0.0,0 STARLINK-3166,1 51462U 22010G   23256.68200648  .00003311  00000-0  22591-3 0  9995,2 51462  53.2184  35.3382 0001136  89.7397 270.3726 15.08857474 90219,6917.827,95.436,540.478,538.906,0.0
51462.0,STARLINK-3166,PAYLOAD,2023-09-14 09:51:20,15.08834619,0.0001333,53.218,32.0677,85.6728,274.4416,-8.1308e-05,-1.581e-05,0.0,0 STARLINK-3166,1 51462U 22010G   23257.41065856 -.00001581  00000-0 -81308-4 0  9998,2 51462  53.2180  32.0677 0001333  85.6728 274.4416 15.08834619 90327,6917.897,95.438,540.684,538.84,0.0
51462.0,STARLINK-3166,PAYLOAD,2023-09-14 13:02:07,15.08830914,0.0001214,53.2188,31.4719,100.1056,260.0073,-0.00018817,-3.281e-05,0.0,0 STARLINK-3166,1 51462U 22010G   23257.54314155 -.00003281  00000-0 -18817-3 0  9994,2 51462  53.2188  31.4719 0001214 100.1056 260.0073 15.08830914 89872,6917.908,95.438,540.613,538.933,0.0
51462.0,STARLINK-3166,PAYLOAD,2023-09-14 16:12:53,15.08822193,0.0001146,53.2174,30.8759,50.5972,309.5121,-0.00032048,-5.382e-05,0.0,0 STARLINK-3166,1 51462U 22010G   23257.67562304 -.00005382  00000-0 -32048-3 0  9995,2 51462  53.2174  30.8759 0001146  50.5972 309.5121 15.08822193 90362,6917.935,95.439,540.593,539.007,0.0
